#aV2010  7  8  0  0   .00000000      96 DD+AD WGS84 FIT  NGA
## 1591 345600.00000000   900.00000000 55385  .0000000000000
+   31     1  2  3  4  5  6  7  8  9 10 11 12 13 14 15 16 17
+         18 19 20 21 22 23 24 26 27 28 29 30 31 32  0  0  0
+          0  0  0  0  0  0  0  0  0  0  0  0  0  0  0  0  0
+          0  0  0  0  0  0  0  0  0  0  0  0  0  0  0  0  0
+          0  0  0  0  0  0  0  0  0  0  0  0  0  0  0  0  0
++         0  0  0  0  0  0  0  0  0  0  0  0  0  0  0  0  0
++         0  0  0  0  0  0  0  0  0  0  0  0  0  0  0  0  0
++         0  0  0  0  0  0  0  0  0  0  0  0  0  0  0  0  0
++         0  0  0  0  0  0  0  0  0  0  0  0  0  0  0  0  0
++         0  0  0  0  0  0  0  0  0  0  0  0  0  0  0  0  0
%c cc cc ccc ccc cccc cccc cccc cccc ccccc ccccc ccccc ccccc
%c cc cc ccc ccc cccc cccc cccc cccc ccccc ccccc ccccc ccccc
%f  0.0000000  0.000000000  0.00000000000  0.000000000000000
%f  0.0000000  0.000000000  0.00000000000  0.000000000000000
%i    0    0    0    0      0      0      0      0         0
%i    0    0    0    0      0      0      0      0         0
/*      NGA, ST. LOUIS,MO.                                  
/*   EPHEMERIS COMPUTED FROM  3 DAYS OF DATA                
/* CCCCCCCCCCCCCCCCCCCCCCCCCCCCCCCCCCCCCCCCCCCCCCCCCCCCCCCCC
/* CCCCCCCCCCCCCCCCCCCCCCCCCCCCCCCCCCCCCCCCCCCCCCCCCCCCCCCCC
*  2010  7  8 16 45   .00000000                                                 
P  1   5032.616257 -23753.942052  10494.092305   -138.955527                    
V  1   3743.810178  13241.633513  27998.096625      -.040354                    
P  2   2376.228186  17204.479682  20193.996241    271.187337                    
V  2 -23829.809400  -9497.010164  10426.794058       .031027                    
P  3   2302.805873 -19921.442671 -17621.327345    578.859841                    
V  3  17761.186700 -13004.953995  17739.263740       .050353                    
P  4 -12977.627700  10556.470244  20525.106467    120.620904                    
V  4 -23658.311418 -11887.995288  -8414.450648       .080783                    
P  5   2366.544772  26408.086172    174.303779    -12.571794                    
V  5  -2991.242269     43.013723  31748.196201      -.029845                    
P  6   8335.818965 -20308.540708 -14660.827733    580.283247                    
V  6  16719.045148  -9569.608842  22648.524052      -.139546                    
P  7 -24662.504985  -4800.209089  -8900.883800     -1.633096                    
V  7  -9270.610102  -6660.366671  29145.551050      -.001341                    
P  8 -19093.554121   3173.490792 -18443.320838      6.056602                    
V  8 -19891.062865 -11805.943217  18054.273163       .001164                    
P  9  19002.584934  15744.728950 -10411.335519     17.097594                    
V  9 -12072.542701  -3256.038015 -28435.418559       .022619                    
P 10  -5920.248352  23366.374709  10564.282036    -46.525955                    
V 10  -3924.987665 -13586.902754  27717.915699      -.009774                    
P 11 -23319.436808 -10886.797357  -7545.793734    -74.267794                    
V 11   9946.865967  -2488.089785 -27785.629241      -.025450                    
P 12  11970.074223  18208.654028  15334.209282    -95.765149                    
V 12   -107.594202  19382.285439 -22841.699113       .039979                    
P 13 -22023.956009   2219.926115  14571.769668    302.055133                    
V 13  15262.175429 -10843.975053  24443.561449      -.006544                    
P 14  20962.381517 -15887.573133   3254.947206     65.607898                    
V 14   4471.790010   -357.270097 -32040.838798       .040879                    
P 15   6294.766553  14278.452303 -21469.101506   -243.051703                    
V 15 -22315.850260  15786.834183   4071.119437       .062150                    
P 16   1994.022014 -25804.042675   5299.672718    -87.750019                    
V 16   3011.203460   6553.296066  31248.992959      -.036428                    
P 17 -21686.490947  15120.269215    673.811343    160.833078                    
V 17  -2291.533677  -2098.608580 -31868.323082       .019123                    
P 18  15610.481497   -237.617224 -21214.771190     79.552755                    
V 18   1976.072935  27610.957146    749.010461       .023305                    
P 19  -6375.890979 -13927.891252 -21656.353507    -48.132487                    
V 19  23888.699686 -13812.099010   2159.566802      -.029020                    
P 20 -13687.797266 -16328.460264  15753.825659     53.615555                    
V 20    -90.315662 -20440.540846 -21037.960459      -.004834                    
P 21  24126.551828   2281.666124 -11213.517435    -72.541714                    
V 21  11977.601104   8804.628795  26106.178598      -.026412                    
P 22  12688.681293 -14113.278878 -18376.877136    167.958810                    
V 22   3453.313539  23626.555022 -15714.354481      -.006607                    
P 23 -16692.151572  -5235.355383  20058.496027    363.828334                    
V 23  20373.992315 -15198.926525  12650.958271      -.015964                    
P 24   9216.099241 -12530.621943 -21445.931471    302.720465                    
V 24  24118.417402  13140.785461   2918.154271       .031735                    
P 26   3135.004302  15077.008739 -22115.285968    -78.191556                    
V 26 -23121.317854  13537.196510   6510.967147      -.060332                    
P 27  16834.748545  15835.387585 -12560.117652    168.269391                    
V 27 -16462.572984  -4512.723242 -26174.557014       .035017                    
P 28 -12933.283874  11147.849334 -19786.997950    -11.210308                    
V 28  -2693.283177 -26134.257729 -12939.281963       .012338                    
P 29  21759.163102  -1606.323128  15208.872252    133.091197                    
V 29 -14888.939563  12240.181850  22771.437678       .026259                    
P 30  15328.411034   6370.615065  20344.020300    258.793937                    
V 30   2608.814298  26637.542502 -10061.079543       .031616                    
P 31   9966.829113 -11665.489645  21902.826144    -25.860837                    
V 31  24592.903871  11745.879309  -4809.847883       .025270                    
P 32  -8325.498688 -22707.675793  11702.180547    -33.333267                    
V 32   2020.505482 -14234.643318 -26625.412275      -.086789                    
EOF
